MONOLITH                
1 49052U 21068A   26068.54548855  .00008348  00000+0  53656-3 0  9993
2 49052  37.0220 141.2957 0002679 131.6464 228.4511 15.08010119252226
STARLINK-3873           
1 52467U 22049S   26068.26757431 -.00000550  00000+0 -16498-4 0  9991
2 52467  53.2168  61.0150 0001338  91.4534 268.6611 15.08831710212183
